[{"OBJECT_NAME":"TIANMU-1 19","OBJECT_ID":"2023-208A","EPOCH":"2026-03-09T22:13:36.801696","MEAN_MOTION":15.2984143,"ECCENTRICITY":0.00039292,"INCLINATION":97.4383,"RA_OF_ASC_NODE":184.9132,"ARG_OF_PERICENTER":316.2611,"MEAN_ANOMALY":43.8317,"EPHEMERIS_TYPE":0,"CLASSIFICATION_TYPE":"U","NORAD_CAT_ID":58660,"ELEMENT_SET_NO":999,"REV_AT_EPOCH":12214,"BSTAR":0.00040995676,"MEAN_MOTION_DOT":0.00011779,"MEAN_MOTION_DDOT":0},{"OBJECT_NAME":"STARLINK-33857","OBJECT_ID":"2025-113AB","EPOCH":"2026-03-09T19:03:26.282880","MEAN_MOTION":15.30220343,"ECCENTRICITY":0.00019382,"INCLINATION":53.1599,"RA_OF_ASC_NODE":90.4571,"ARG_OF_PERICENTER":107.8257,"MEAN_ANOMALY":252.2955,"EPHEMERIS_TYPE":0,"CLASSIFICATION_TYPE":"U","NORAD_CAT_ID":64195,"ELEMENT_SET_NO":999,"REV_AT_EPOCH":4504,"BSTAR":0.00083378978,"MEAN_MOTION_DOT":0.00024432,"MEAN_MOTION_DDOT":0}]
